{"type": "FeatureCollection", "features": [ {"type": "Feature", "properties": {"norad_id": 34833, "name": "IRIDIUM 33 DEB", "group": "iridium-33-debris", "lat": 61.894852286077985, "lon": 59.01877762121354, "alt_km": 701.1001454135294, "timestamp": "2025-12-09T20:37:09.674284+00:00", "meta": {"OBJECT_NAME": "IRIDIUM 33 DEB", "OBJECT_ID": "1997-051MH", "EPOCH": "2025-12-09T05:43:51.843072", "MEAN_MOTION": 14.52344467, "ECCENTRICITY": 0.0021797, "INCLINATION": 86.3929, "RA_OF_ASC_NODE": 52.5028, "ARG_OF_PERICENTER": 109.2817, "MEAN_ANOMALY": 311.6946, "EPHEMERIS_TYPE": 0, "CLASSIFICATION_TYPE": "U", "NORAD_CAT_ID": 34833, "ELEMENT_SET_NO": 999, "REV_AT_EPOCH": 87664, "BSTAR": 0.0011811, "MEAN_MOTION_DOT": 4.84e-05, "MEAN_MOTION_DDOT": 0}, "tle": {"line1": "1 34833U 97051MH  25343.23879448  .00004840  00000+0  11811-2 0  9994", "line2": "2 34833  86.3929  52.5028 0021797 109.2817 311.6946 14.52344467876647"}}, "geometry": {"type": "Point", "coordinates": [59.01877762121354, 61.894852286077985]}}, {"type": "Feature", "properties": {"norad_id": 34870, "name": "IRIDIUM 33 DEB", "group": "iridium-33-debris", "lat": 34.284208980737205, "lon": 132.8807013738618, "alt_km": 631.632182678627, "timestamp": "2025-12-09T20:37:09.674294+00:00", "meta": {"OBJECT_NAME": "IRIDIUM 33 DEB", "OBJECT_ID": "1997-051MQ", "EPOCH": "2025-12-07T16:41:29.147136", "MEAN_MOTION": 14.76272854, "ECCENTRICITY": 0.00154972, "INCLINATION": 86.3098, "RA_OF_ASC_NODE": 316.3932, "ARG_OF_PERICENTER": 201.8058, "MEAN_ANOMALY": 332.1989, "EPHEMERIS_TYPE": 0, "CLASSIFICATION_TYPE": "U", "NORAD_CAT_ID": 34870, "ELEMENT_SET_NO": 999, "REV_AT_EPOCH": 88836, "BSTAR": 0.0021061979, "MEAN_MOTION_DOT": 0.00014658, "MEAN_MOTION_DDOT": 0}, "tle": {"line1": "1 34870U 97051MQ  25341.69547624  .00014658  00000+0  21062-2 0  9998", "line2": "2 34870  86.3098 316.3932 0015497 201.8058 332.1989 14.76272854888369"}}, "geometry": {"type": "Point", "coordinates": [132.8807013738618, 34.284208980737205]}}, {"type": "Feature", "properties": {"norad_id": 34896, "name": "IRIDIUM 33 DEB", "group": "iridium-33-debris", "lat": 86.0406740727696, "lon": 79.92697601574436, "alt_km": 677.3752993866938, "timestamp": "2025-12-09T20:37:09.674305+00:00", "meta": {"OBJECT_NAME": "IRIDIUM 33 DEB", "OBJECT_ID": "1997-051MY", "EPOCH": "2025-12-09T05:43:17.078304", "MEAN_MOTION": 14.66220489, "ECCENTRICITY": 0.0024034, "INCLINATION": 86.3293, "RA_OF_ASC_NODE": 328.2553, "ARG_OF_PERICENTER": 227.4371, "MEAN_ANOMALY": 189.808, "EPHEMERIS_TYPE": 0, "CLASSIFICATION_TYPE": "U", "NORAD_CAT_ID": 34896, "ELEMENT_SET_NO": 999, "REV_AT_EPOCH": 87568, "BSTAR": 0.0013765, "MEAN_MOTION_DOT": 7.633e-05, "MEAN_MOTION_DDOT": 0}, "tle": {"line1": "1 34896U 97051MY  25343.23839211  .00007633  00000+0  13765-2 0  9990", "line2": "2 34896  86.3293 328.2553 0024034 227.4371 189.8080 14.66220489875680"}}, "geometry": {"type": "Point", "coordinates": [79.92697601574436, 86.0406740727696]}}, {"type": "Feature", "properties": {"norad_id": 34926, "name": "IRIDIUM 33 DEB", "group": "iridium-33-debris", "lat": -57.97911274872151, "lon": 3.397544600882727, "alt_km": 665.3285655634145, "timestamp": "2025-12-09T20:37:09.674316+00:00", "meta": {"OBJECT_NAME": "IRIDIUM 33 DEB", "OBJECT_ID": "1997-051NF", "EPOCH": "2025-12-09T03:00:38.009952", "MEAN_MOTION": 14.54144924, "ECCENTRICITY": 0.00760026, "INCLINATION": 86.1319, "RA_OF_ASC_NODE": 9.9484, "ARG_OF_PERICENTER": 305.1684, "MEAN_ANOMALY": 118.2748, "EPHEMERIS_TYPE": 0, "CLASSIFICATION_TYPE": "U", "NORAD_CAT_ID": 34926, "ELEMENT_SET_NO": 999, "REV_AT_EPOCH": 86404, "BSTAR": 0.0063092717, "MEAN_MOTION_DOT": 0.00027819, "MEAN_MOTION_DDOT": 0}, "tle": {"line1": "1 34926U 97051NF  25343.12543993  .00027819  00000+0  63093-2 0  9998", "line2": "2 34926  86.1319   9.9484 0076002 305.1684 118.2748 14.54144924864041"}}, "geometry": {"type": "Point", "coordinates": [3.397544600882727, -57.97911274872151]}}, {"type": "Feature", "properties": {"norad_id": 34985, "name": "IRIDIUM 33 DEB", "group": "iridium-33-debris", "lat": -14.344328601374098, "lon": -120.96156523994127, "alt_km": 744.7933385977631, "timestamp": "2025-12-09T20:37:09.674327+00:00", "meta": {"OBJECT_NAME": "IRIDIUM 33 DEB", "OBJECT_ID": "1997-051NR", "EPOCH": "2025-12-09T11:29:05.215776", "MEAN_MOTION": 14.41988127, "ECCENTRICITY": 0.00203885, "INCLINATION": 86.3692, "RA_OF_ASC_NODE": 58.2704, "ARG_OF_PERICENTER": 230.9177, "MEAN_ANOMALY": 148.9358, "EPHEMERIS_TYPE": 0, "CLASSIFICATION_TYPE": "U", "NORAD_CAT_ID": 34985, "ELEMENT_SET_NO": 999, "REV_AT_EPOCH": 87128, "BSTAR": 0.0011381521, "MEAN_MOTION_DOT": 3.759e-05, "MEAN_MOTION_DDOT": 0}, "tle": {"line1": "1 34985U 97051NR  25343.47853259  .00003759  00000+0  11382-2 0  9991", "line2": "2 34985  86.3692  58.2704 0020388 230.9177 148.9358 14.41988127871280"}}, "geometry": {"type": "Point", "coordinates": [-120.96156523994127, -14.344328601374098]}}, {"type": "Feature", "properties": {"norad_id": 35051, "name": "IRIDIUM 33 DEB", "group": "iridium-33-debris", "lat": 68.86601654863269, "lon": 19.69024059079178, "alt_km": 720.3648732951851, "timestamp": "2025-12-09T20:37:09.674338+00:00", "meta": {"OBJECT_NAME": "IRIDIUM 33 DEB", "OBJECT_ID": "1997-051NX", "EPOCH": "2025-12-09T08:41:17.541312", "MEAN_MOTION": 14.47575275, "ECCENTRICITY": 0.00106574, "INCLINATION": 86.3242, "RA_OF_ASC_NODE": 10.3338, "ARG_OF_PERICENTER": 100.3191, "MEAN_ANOMALY": 259.9214, "EPHEMERIS_TYPE": 0, "CLASSIFICATION_TYPE": "U", "NORAD_CAT_ID": 35051, "ELEMENT_SET_NO": 999, "REV_AT_EPOCH": 86947, "BSTAR": 0.0010277257, "MEAN_MOTION_DOT": 3.803e-05, "MEAN_MOTION_DDOT": 0}, "tle": {"line1": "1 35051U 97051NX  25343.36200858  .00003803  00000+0  10277-2 0  9997", "line2": "2 35051  86.3242  10.3338 0010657 100.3191 259.9214 14.47575275869476"}}, "geometry": {"type": "Point", "coordinates": [19.69024059079178, 68.86601654863269]}}, {"type": "Feature", "properties": {"norad_id": 35052, "name": "IRIDIUM 33 DEB", "group": "iridium-33-debris", "lat": -47.416476269437716, "lon": 17.708096429047483, "alt_km": 777.9118848132948, "timestamp": "2025-12-09T20:37:09.674348+00:00", "meta": {"OBJECT_NAME": "IRIDIUM 33 DEB", "OBJECT_ID": "1997-051NY", "EPOCH": "2025-12-09T09:09:14.071104", "MEAN_MOTION": 14.38486944, "ECCENTRICITY": 0.00136896, "INCLINATION": 86.3313, "RA_OF_ASC_NODE": 21.9161, "ARG_OF_PERICENTER": 94.3861, "MEAN_ANOMALY": 265.8902, "EPHEMERIS_TYPE": 0, "CLASSIFICATION_TYPE": "U", "NORAD_CAT_ID": 35052, "ELEMENT_SET_NO": 999, "REV_AT_EPOCH": 87227, "BSTAR": 0.00032817841, "MEAN_MOTION_DOT": 1.023e-05, "MEAN_MOTION_DDOT": 0}, "tle": {"line1": "1 35052U 97051NY  25343.38141286  .00001023  00000+0  32818-3 0  9997", "line2": "2 35052  86.3313  21.9161 0013689  94.3861 265.8902 14.38486944872278"}}, "geometry": {"type": "Point", "coordinates": [17.708096429047483, -47.416476269437716]}}, {"type": "Feature", "properties": {"norad_id": 35080, "name": "IRIDIUM 33 DEB", "group": "iridium-33-debris", "lat": -2.1059673482125665, "lon": 53.612770207065424, "alt_km": 657.68524794307, "timestamp": "2025-12-09T20:37:09.674358+00:00", "meta": {"OBJECT_NAME": "IRIDIUM 33 DEB", "OBJECT_ID": "1997-051PF", "EPOCH": "2025-12-09T10:55:41.938464", "MEAN_MOTION": 14.85397119, "ECCENTRICITY": 0.00616418, "INCLINATION": 86.2064, "RA_OF_ASC_NODE": 53.9454, "ARG_OF_PERICENTER": 191.0106, "MEAN_ANOMALY": 168.9774, "EPHEMERIS_TYPE": 0, "CLASSIFICATION_TYPE": "U", "NORAD_CAT_ID": 35080, "ELEMENT_SET_NO": 999, "REV_AT_EPOCH": 69639, "BSTAR": 0.010046072, "MEAN_MOTION_DOT": 0.00090518, "MEAN_MOTION_DDOT": 0}, "tle": {"line1": "1 35080U 97051PF  25343.45534651  .00090518  00000+0  10046-1 0  9992", "line2": "2 35080  86.2064  53.9454 0061641 191.0106 168.9774 14.85397119696393"}}, "geometry": {"type": "Point", "coordinates": [53.612770207065424, -2.1059673482125665]}}, {"type": "Feature", "properties": {"norad_id": 35297, "name": "IRIDIUM 33 DEB", "group": "iridium-33-debris", "lat": 29.167222715118257, "lon": -118.03126775281766, "alt_km": 728.1281191216458, "timestamp": "2025-12-09T20:37:09.674368+00:00", "meta": {"OBJECT_NAME": "IRIDIUM 33 DEB", "OBJECT_ID": "1997-051PM", "EPOCH": "2025-12-06T00:31:29.302752", "MEAN_MOTION": 14.45108459, "ECCENTRICITY": 0.00170329, "INCLINATION": 86.3867, "RA_OF_ASC_NODE": 65.6268, "ARG_OF_PERICENTER": 161.2449, "MEAN_ANOMALY": 198.9384, "EPHEMERIS_TYPE": 0, "CLASSIFICATION_TYPE": "U", "NORAD_CAT_ID": 35297, "ELEMENT_SET_NO": 999, "REV_AT_EPOCH": 70329, "BSTAR": 0.0012426888, "MEAN_MOTION_DOT": 4.371e-05, "MEAN_MOTION_DDOT": 0}, "tle": {"line1": "1 35297U 97051PM  25340.02186693  .00004371  00000+0  12427-2 0  9999", "line2": "2 35297  86.3867  65.6268 0017032 161.2449 198.9384 14.45108459703293"}}, "geometry": {"type": "Point", "coordinates": [-118.03126775281766, 29.167222715118257]}}, {"type": "Feature", "properties": {"norad_id": 35299, "name": "IRIDIUM 33 DEB", "group": "iridium-33-debris", "lat": 51.628248810506854, "lon": -150.26246361898814, "alt_km": 710.7640344926676, "timestamp": "2025-12-09T20:37:09.674378+00:00", "meta": {"OBJECT_NAME": "IRIDIUM 33 DEB", "OBJECT_ID": "1997-051PP", "EPOCH": "2025-12-09T03:37:25.282848", "MEAN_MOTION": 14.40832112, "ECCENTRICITY": 0.00588898, "INCLINATION": 86.2882, "RA_OF_ASC_NODE": 34.7485, "ARG_OF_PERICENTER": 113.8076, "MEAN_ANOMALY": 303.2931, "EPHEMERIS_TYPE": 0, "CLASSIFICATION_TYPE": "U", "NORAD_CAT_ID": 35299, "ELEMENT_SET_NO": 999, "REV_AT_EPOCH": 86279, "BSTAR": 0.00094086001, "MEAN_MOTION_DOT": 3.095e-05, "MEAN_MOTION_DDOT": 0}, "tle": {"line1": "1 35299U 97051PP  25343.15098707  .00003095  00000+0  94086-3 0  9990", "line2": "2 35299  86.2882  34.7485 0058889 113.8076 303.2931 14.40832112862798"}}, "geometry": {"type": "Point", "coordinates": [-150.26246361898814, 51.628248810506854]}}]}